FLOCK 4Q-23             
1 58307U 23174BD  23354.20428207  .00010028  00000+0  53650-3 0  9994
2 58307  97.4826  66.5416 0013871 127.4740 232.7756 15.15165568  6421
FLOCK 4Q-33             
1 58308U 23174BE  23354.19960604  .00009331  00000+0  49629-3 0  9991
2 58308  97.4766  66.5103 0013152 124.6578 235.5896 15.15402884  6429
FLOCK 4Q-35             
1 58309U 23174BF  23354.20331900  .00008603  00000+0  46080-3 0  9994
2 58309  97.4816  66.5383 0013939 130.6594 229.5852 15.15169218  6420
FLOCK 4Q-32             
1 58310U 23174BG  23354.20023786  .00024576  00000+0  12904-2 0  9990
2 58310  97.4832  66.5474 0013478 124.5175 235.7332 15.15628387  6425
FLOCK 4Q-14             
1 58311U 23174BH  23353.21243063  .00008881  00000+0  47608-3 0  9994
2 58311  97.4752  65.5288 0012131 124.9048 235.3326 15.15150896  6274
FLOCK 4Q-3              
1 58312U 23174BJ  23354.19585471  .00016774  00000+0  87852-3 0  9990
2 58312  97.4824  66.5486 0012902 123.8240 236.4223 15.15807589  6427
FLOCK 4Q-20             
1 58313U 23174BK  23354.20207653  .00010137  00000+0  54097-3 0  9998
2 58313  97.4820  66.5401 0014046 125.8989 234.3549 15.15252915  6429
FLOCK 4Q-24             
1 58314U 23174BL  23353.21222213  .00008951  00000+0  47964-3 0  9994
2 58314  97.4757  65.5305 0013089 125.7055 234.5397 15.15153346  6274
FLOCK 4Q-6              
1 58315U 23174BM  23353.74136414  .00006759  00000+0  36370-3 0  9993
2 58315  97.4756  66.0474 0012827 123.2861 236.9602 15.15100594  6355
FLOCK 4Q-34             
1 58316U 23174BN  23353.67329601  .00007122  00000+0  38153-3 0  9994
2 58316  97.4770  65.9929 0013889 126.4386 233.8129 15.15230499  6348
FLOCK 4Q-7              
1 58318U 23174BQ  23354.20095137  .00007892  00000+0  42225-3 0  9999
2 58318  97.4825  66.5422 0014103 123.8291 236.4286 15.15235094  6420
FLOCK 4Q-15             
1 58319U 23174BR  23354.19989452  .00008598  00000+0  45859-3 0  9990
2 58319  97.4818  66.5400 0013531 120.9836 239.2727 15.15324933  6428
FLOCK 4Q-2              
1 58320U 23174BS  23354.20050845  .00007734  00000+0  41384-3 0  9999
2 58320  97.4772  66.5149 0013259 120.8680 239.3858 15.15247964  6426
FLOCK 4Q-9              
1 58322U 23174BU  23354.20000849  .00007669  00000+0  41014-3 0  9997
2 58322  97.4787  66.5221 0013511 121.3032 238.9525 15.15268862  6429
FLOCK 4Q-10             
1 58324U 23174BW  23354.13449262  .00006684  00000+0  35834-3 0  9996
2 58324  97.4791  66.4597 0013182 119.2580 240.9972 15.15235489  6416
FLOCK 4Q-5              
1 58325U 23174BX  23353.73671058  .00018175  00000+0  96168-3 0  9997
2 58325  97.4812  66.0810 0014327 124.3038 235.9553 15.15409552  6358
FLOCK 4Q-4              
1 58327U 23174BZ  23354.15759511  .00007344  00000+0  40360-3 0  9996
2 58327  97.4761  66.4153 0011289 137.7034 222.5070 15.14334919  6411
FLOCK 4Q-13             
1 58328U 23174CA  23353.16715406  .00007223  00000+0  39757-3 0  9996
2 58328  97.4823  65.4714 0013089 141.8406 218.3755 15.14267515  6265
FLOCK 4Q-21             
1 58329U 23174CB  23353.16443070  .00009335  00000+0  51018-3 0  9992
2 58329  97.4821  65.4770 0012109 140.8632 219.3478 15.14448998  6267
